start=new Date('2023-05-02T00:00:00.000Z').valueOf();
sats=[{"REF_FRAME":"TEME","MEAN_MOTION":"15.08844887","MEAN_MOTION_DDOT":"0.0000000000000","COUNTRY_CODE":"US","REV_AT_EPOCH":"4849","DECAY_DATE":null,"BSTAR":"0.00009015700000","RCS_SIZE":"LARGE","ARG_OF_PERICENTER":"107.1824","TLE_LINE2":"2 52858  53.2171  25.5141 0001304 107.1824 252.9311 15.08844887 48499","ELEMENT_SET_NO":"999","TIME_SYSTEM":"UTC","SITE":"AFETR","LAUNCH_DATE":"2022-06-17","MEAN_ELEMENT_THEORY":"SGP4","OBJECT_NAME":"STARLINK-4198","TLE_LINE1":"1 52858U 22062AE  23121.87197686  .00001147  00000-0  90157-4 0  9990","PERIOD":"95.437","RA_OF_ASC_NODE":"25.5141","EPHEMERIS_TYPE":"0","INCLINATION":"53.2171","FILE":"3898518","OBJECT_ID":"2022-062AE","SEMIMAJOR_AXIS":"6917.865","MEAN_MOTION_DOT":"0.00001147","NORAD_CAT_ID":"52858","OBJECT_TYPE":"PAYLOAD","MEAN_ANOMALY":"252.9311","PERIAPSIS":"538.828","EPOCH":"2023-05-01T20:55:38.800704","APOAPSIS":"540.633","CLASSIFICATION_TYPE":"U","CENTER_NAME":"EARTH","GP_ID":"231054409","ECCENTRICITY":"0.00013040"},{"TIME_SYSTEM":"UTC","LAUNCH_DATE":"2022-06-17","SITE":"AFETR","TLE_LINE2":"2 52859  53.2173  24.9728 0000969  99.0652 261.0450 15.08844060 49006","ELEMENT_SET_NO":"999","OBJECT_NAME":"STARLINK-4196","MEAN_ELEMENT_THEORY":"SGP4","MEAN_MOTION_DDOT":"0.0000000000000","COUNTRY_CODE":"US","MEAN_MOTION":"15.08844060","REF_FRAME":"TEME","DECAY_DATE":null,"BSTAR":"0.00019078000000","RCS_SIZE":"LARGE","ARG_OF_PERICENTER":"99.0652","REV_AT_EPOCH":"4900","EPOCH":"2023-05-01T23:49:08.616576","APOAPSIS":"540.403","PERIAPSIS":"539.063","OBJECT_TYPE":"PAYLOAD","NORAD_CAT_ID":"52859","MEAN_ANOMALY":"261.0450","CENTER_NAME":"EARTH","ECCENTRICITY":"0.00009690","GP_ID":"231030073","CLASSIFICATION_TYPE":"U","PERIOD":"95.437","RA_OF_ASC_NODE":"24.9728","TLE_LINE1":"1 52859U 22062AF  23121.99246084  .00002750  00000-0  19078-3 0  9994","INCLINATION":"53.2173","MEAN_MOTION_DOT":"0.00002750","FILE":"3898485","SEMIMAJOR_AXIS":"6917.868","OBJECT_ID":"2022-062AF","EPHEMERIS_TYPE":"0"},{"RA_OF_ASC_NODE":"25.2333","PERIOD":"95.437","TLE_LINE1":"1 52860U 22062AG  23121.93358207  .00006285  00000-0  41250-3 0  9995","SEMIMAJOR_AXIS":"6917.849","FILE":"3898518","MEAN_MOTION_DOT":"0.00006285","OBJECT_ID":"2022-062AG","INCLINATION":"53.2178","EPHEMERIS_TYPE":"0","APOAPSIS":"540.564","EPOCH":"2023-05-01T22:24:21.490848","NORAD_CAT_ID":"52860","OBJECT_TYPE":"PAYLOAD","MEAN_ANOMALY":"284.0343","PERIAPSIS":"538.864","GP_ID":"231053908","ECCENTRICITY":"0.00012290","CENTER_NAME":"EARTH","CLASSIFICATION_TYPE":"U","COUNTRY_CODE":"US","MEAN_MOTION_DDOT":"0.0000000000000","REF_FRAME":"TEME","MEAN_MOTION":"15.08850230","RCS_SIZE":"LARGE","DECAY_DATE":null,"BSTAR":"0.00041250000000","ARG_OF_PERICENTER":"76.0786","REV_AT_EPOCH":"4850","LAUNCH_DATE":"2022-06-17","SITE":"AFETR","TIME_SYSTEM":"UTC","ELEMENT_SET_NO":"999","TLE_LINE2":"2 52860  53.2178  25.2333 0001229  76.0786 284.0343 15.08850230 48508","MEAN_ELEMENT_THEORY":"SGP4","OBJECT_NAME":"STARLINK-4191"},{"EPHEMERIS_TYPE":"0","FILE":"3898485","SEMIMAJOR_AXIS":"6917.872","MEAN_MOTION_DOT":"0.00002212","OBJECT_ID":"2022-062AH","INCLINATION":"53.2177","TLE_LINE1":"1 52861U 22062AH  23121.97501881  .00002212  00000-0  15700-3 0  9995","RA_OF_ASC_NODE":"25.0566","PERIOD":"95.437","CLASSIFICATION_TYPE":"U","GP_ID":"231029860","ECCENTRICITY":"0.00010360","CENTER_NAME":"EARTH","OBJECT_TYPE":"PAYLOAD","NORAD_CAT_ID":"52861","MEAN_ANOMALY":"266.6413","PERIAPSIS":"539.020","APOAPSIS":"540.453","EPOCH":"2023-05-01T23:24:01.625184","REV_AT_EPOCH":"4900","RCS_SIZE":"LARGE","DECAY_DATE":null,"ARG_OF_PERICENTER":"93.4697","BSTAR":"0.00015700000000","REF_FRAME":"TEME","MEAN_MOTION":"15.08842850","COUNTRY_CODE":"US","MEAN_MOTION_DDOT":"0.0000000000000","MEAN_ELEMENT_THEORY":"SGP4","OBJECT_NAME":"STARLINK-4112","ELEMENT_SET_NO":"999","TLE_LINE2":"2 52861  53.2177  25.0566 0001036  93.4697 266.6413 15.08842850 49003","SITE":"AFETR","LAUNCH_DATE":"2022-06-17","TIME_SYSTEM":"UTC"},{"OBJECT_TYPE":"PAYLOAD","MEAN_ANOMALY":"279.3678","NORAD_CAT_ID":"52862","PERIAPSIS":"539.039","EPOCH":"2023-05-01T22:08:27.526848","APOAPSIS":"540.394","CLASSIFICATION_TYPE":"U","CENTER_NAME":"EARTH","GP_ID":"231054910","ECCENTRICITY":"0.00009790","TLE_LINE1":"1 52862U 22062AJ  23121.92254082  .00010566  00000-0  68079-3 0  9997","PERIOD":"95.437","RA_OF_ASC_NODE":"25.2863","EPHEMERIS_TYPE":"0","INCLINATION":"53.2164","MEAN_MOTION_DOT":"0.00010566","FILE":"3898518","SEMIMAJOR_AXIS":"6917.851","OBJECT_ID":"2022-062AJ","TLE_LINE2":"2 52862  53.2164  25.2863 0000979  80.7424 279.3678 15.08849521 48504","ELEMENT_SET_NO":"999","TIME_SYSTEM":"UTC","SITE":"AFETR","LAUNCH_DATE":"2022-06-17","MEAN_ELEMENT_THEORY":"SGP4","OBJECT_NAME":"STARLINK-4010","REF_FRAME":"TEME","MEAN_MOTION":"15.08849521","MEAN_MOTION_DDOT":"0.0000000000000","COUNTRY_CODE":"US","REV_AT_EPOCH":"4850","DECAY_DATE":null,"ARG_OF_PERICENTER":"80.7424","RCS_SIZE":"LARGE","BSTAR":"0.00068079000000"},{"CLASSIFICATION_TYPE":"U","CENTER_NAME":"EARTH","ECCENTRICITY":"0.00013930","GP_ID":"231054651","PERIAPSIS":"538.781","OBJECT_TYPE":"PAYLOAD","MEAN_ANOMALY":"269.8402","NORAD_CAT_ID":"52863","EPOCH":"2023-05-01T21:57:51.812928","APOAPSIS":"540.708","EPHEMERIS_TYPE":"0","INCLINATION":"53.2185","SEMIMAJOR_AXIS":"6917.879","FILE":"3898518","OBJECT_ID":"2022-062AK","MEAN_MOTION_DOT":"0.00001498","TLE_LINE1":"1 52863U 22062AK  23121.91518302  .00001498  00000-0  11218-3 0  9992","PERIOD":"95.438","RA_OF_ASC_NODE":"25.3160","OBJECT_NAME":"STARLINK-4270","MEAN_ELEMENT_THEORY":"SGP4","TLE_LINE2":"2 52863  53.2185  25.3160 0001393  90.2750 269.8402 15.08840333 48509","ELEMENT_SET_NO":"999","TIME_SYSTEM":"UTC","LAUNCH_DATE":"2022-06-17","SITE":"AFETR","REV_AT_EPOCH":"4850","DECAY_DATE":null,"RCS_SIZE":"LARGE","BSTAR":"0.00011218000000","ARG_OF_PERICENTER":"90.2750","MEAN_MOTION":"15.08840333","REF_FRAME":"TEME","MEAN_MOTION_DDOT":"0.0000000000000","COUNTRY_CODE":"US"},{"TLE_LINE2":"2 52864  53.2164  25.3033 0001084 103.0146 257.0967 15.08844333 48504","ELEMENT_SET_NO":"999","TIME_SYSTEM":"UTC","LAUNCH_DATE":"2022-06-17","SITE":"AFETR","OBJECT_NAME":"STARLINK-4267","MEAN_ELEMENT_THEORY":"SGP4","MEAN_MOTION":"15.08844333","REF_FRAME":"TEME","MEAN_MOTION_DDOT":"0.0000000000000","COUNTRY_CODE":"US","REV_AT_EPOCH":"4850","DECAY_DATE":null,"ARG_OF_PERICENTER":"103.0146","RCS_SIZE":"LARGE","BSTAR":"0.00023867000000","PERIAPSIS":"538.982","NORAD_CAT_ID":"52864","OBJECT_TYPE":"PAYLOAD","MEAN_ANOMALY":"257.0967","EPOCH":"2023-05-01T22:03:09.556704","APOAPSIS":"540.482","CLASSIFICATION_TYPE":"U","CENTER_NAME":"EARTH","ECCENTRICITY":"0.00010840","GP_ID":"231053409","TLE_LINE1":"1 52864U 22062AL  23121.91886061  .00003513  00000-0  23867-3 0  9996","PERIOD":"95.437","RA_OF_ASC_NODE":"25.3033","EPHEMERIS_TYPE":"0","INCLINATION":"53.2164","SEMIMAJOR_AXIS":"6917.867","FILE":"3898518","OBJECT_ID":"2022-062AL","MEAN_MOTION_DOT":"0.00003513"},{"OBJECT_TYPE":"PAYLOAD","NORAD_CAT_ID":"52865","MEAN_ANOMALY":"251.5417","PERIAPSIS":"539.221","EPOCH":"2023-05-01T23:17:20.419008","APOAPSIS":"540.230","CLASSIFICATION_TYPE":"U","CENTER_NAME":"EARTH","GP_ID":"231030084","ECCENTRICITY":"0.00007290","TLE_LINE1":"1 52865U 22062AM  23121.97037522 -.00001403  00000-0 -70088-4 0  9999","PERIOD":"95.437","RA_OF_ASC_NODE":"25.0697","EPHEMERIS_TYPE":"0","INCLINATION":"53.2181","FILE":"3898486","SEMIMAJOR_AXIS":"6917.860","OBJECT_ID":"2022-062AM","MEAN_MOTION_DOT":"-0.00001403","TLE_LINE2":"2 52865  53.2181  25.0697 0000729 108.5654 251.5417 15.08846516 49006","ELEMENT_SET_NO":"999","TIME_SYSTEM":"UTC","SITE":"AFETR","LAUNCH_DATE":"2022-06-17","MEAN_ELEMENT_THEORY":"SGP4","OBJECT_NAME":"STARLINK-4274","REF_FRAME":"TEME","MEAN_MOTION":"15.08846516","MEAN_MOTION_DDOT":"0.0000000000000","COUNTRY_CODE":"US","REV_AT_EPOCH":"4900","DECAY_DATE":null,"RCS_SIZE":"LARGE","ARG_OF_PERICENTER":"108.5654","BSTAR":"-0.00007008800000"},{"CLASSIFICATION_TYPE":"U","GP_ID":"231054410","ECCENTRICITY":"0.00011800","CENTER_NAME":"EARTH","OBJECT_TYPE":"PAYLOAD","NORAD_CAT_ID":"52866","MEAN_ANOMALY":"260.3878","PERIAPSIS":"538.928","APOAPSIS":"540.561","EPOCH":"2023-05-01T21:52:33.688128","EPHEMERIS_TYPE":"0","FILE":"3898518","MEAN_MOTION_DOT":"0.00000883","SEMIMAJOR_AXIS":"6917.880","OBJECT_ID":"2022-062AN","INCLINATION":"53.2178","TLE_LINE1":"1 52866U 22062AN  23121.91150102  .00000883  00000-0  73548-4 0  9997","RA_OF_ASC_NODE":"25.3302","PERIOD":"95.438","MEAN_ELEMENT_THEORY":"SGP4","OBJECT_NAME":"STARLINK-4272","ELEMENT_SET_NO":"999","TLE_LINE2":"2 52866  53.2178  25.3302 0001180  99.7248 260.3878 15.08840193 48509","LAUNCH_DATE":"2022-06-17","SITE":"AFETR","TIME_SYSTEM":"UTC","REV_AT_EPOCH":"4850","RCS_SIZE":"LARGE","DECAY_DATE":null,"ARG_OF_PERICENTER":"99.7248","BSTAR":"0.00007354800000","REF_FRAME":"TEME","MEAN_MOTION":"15.08840193","COUNTRY_CODE":"US","MEAN_MOTION_DDOT":"0.0000000000000"},{"INCLINATION":"53.2181","FILE":"3898486","MEAN_MOTION_DOT":"0.00000258","SEMIMAJOR_AXIS":"6917.876","OBJECT_ID":"2022-062AP","EPHEMERIS_TYPE":"0","PERIOD":"95.437","RA_OF_ASC_NODE":"25.0971","TLE_LINE1":"1 52867U 22062AP  23121.96302215  .00000258  00000-0  34320-4 0  9998","CENTER_NAME":"EARTH","ECCENTRICITY":"0.00012330","GP_ID":"231029877","CLASSIFICATION_TYPE":"U","EPOCH":"2023-05-01T23:06:45.113760","APOAPSIS":"540.594","PERIAPSIS":"538.888","NORAD_CAT_ID":"52867","OBJECT_TYPE":"PAYLOAD","MEAN_ANOMALY":"263.5456","DECAY_DATE":null,"BSTAR":"0.00003432000000","RCS_SIZE":"LARGE","ARG_OF_PERICENTER":"96.5677","REV_AT_EPOCH":"4900","MEAN_MOTION_DDOT":"0.0000000000000","COUNTRY_CODE":"US","MEAN_MOTION":"15.08841359","REF_FRAME":"TEME","OBJECT_NAME":"STARLINK-4126","MEAN_ELEMENT_THEORY":"SGP4","TIME_SYSTEM":"UTC","SITE":"AFETR","LAUNCH_DATE":"2022-06-17","TLE_LINE2":"2 52867  53.2181  25.0971 0001233  96.5677 263.5456 15.08841359 49001","ELEMENT_SET_NO":"999"}];
